[{"OBJECT_NAME":"WILDFIRE 2","OBJECT_ID":"2023-133L","EPOCH":"2026-03-09T19:22:31.583136","MEAN_MOTION":13.8518725,"ECCENTRICITY":0.00045046,"INCLINATION":80.993,"RA_OF_ASC_NODE":102.8595,"ARG_OF_PERICENTER":298.2911,"MEAN_ANOMALY":61.779,"EPHEMERIS_TYPE":0,"CLASSIFICATION_TYPE":"U","NORAD_CAT_ID":57767,"ELEMENT_SET_NO":999,"REV_AT_EPOCH":12724,"BSTAR":6.4756906e-5,"MEAN_MOTION_DOT":8.4e-7,"MEAN_MOTION_DDOT":0},{"OBJECT_NAME":"COSMOS 970 DEB","OBJECT_ID":"1977-121DZ","EPOCH":"2026-03-09T22:25:07.424544","MEAN_MOTION":13.96375057,"ECCENTRICITY":0.01336153,"INCLINATION":65.6307,"RA_OF_ASC_NODE":184.1909,"ARG_OF_PERICENTER":335.2306,"MEAN_ANOMALY":24.2388,"EPHEMERIS_TYPE":0,"CLASSIFICATION_TYPE":"U","NORAD_CAT_ID":65012,"ELEMENT_SET_NO":999,"REV_AT_EPOCH":62536,"BSTAR":0.00078695097,"MEAN_MOTION_DOT":1.085e-5,"MEAN_MOTION_DDOT":0}]
